CTC2_L_00129016-03
1 10062U 24697DQ  26075.70041667  .00000000  00000+0  00000-0 0  9997
2 10062  55.0000 180.0000 0000000   0.0000   0.0000 13.03091871    14
CTC2_L_00129016-04
1 10063U 24901QL  26075.70041667  .00000000  00000+0  00000-0 0  9996
2 10063  55.0000 180.0000 0000000   0.0000  90.0000 13.03091871    14
CTC2_L_00129017-01
1 10064U 23377KE  26075.70041667  .00000000  00000+0  00000-0 0  9993
2 10064  55.0000 192.0000 0000000   0.0000 192.0000 13.03091871    11
CTC2_L_00129017-02
1 10065U 25069E   26075.70041667  .00000000  00000+0  00000-0 0  9994
2 10065  55.0000 192.0000 0000000   0.0000 282.0000 13.03091871    12
CTC2_L_00129017-03
1 10066U 23720OS  26075.70041667  .00000000  00000+0  00000-0 0  9997
2 10066  55.0000 192.0000 0000000   0.0000  12.0000 13.03091871    14
CTC2_L_00129017-04
1 10067U 24858XT  26075.70041667  .00000000  00000+0  00000-0 0  9991
2 10067  55.0000 192.0000 0000000   0.0000 102.0000 13.03091871    15
CTC2_L_00129018-01
1 10068U 22667RI  26075.70041667  .00000000  00000+0  00000-0 0  9998
2 10068  55.0000 204.0000 0000000   0.0000 204.0000 13.03091871    13
CTC2_L_00129018-02
1 10069U 26070BH  26075.70041667  .00000000  00000+0  00000-0 0  9991
2 10069  55.0000 204.0000 0000000   0.0000 294.0000 13.03091871    13
CTC2_L_00129018-03
1 10070U 22945E   26075.70041667  .00000000  00000+0  00000-0 0  9990
2 10070  55.0000 204.0000 0000000   0.0000  24.0000 13.03091871    16
CTC2_L_00129018-04
1 10071U 26059CI  26075.70041667  .00000000  00000+0  00000-0 0  9991
2 10071  55.0000 204.0000 0000000   0.0000 114.0000 13.03091871    17
CTC2_L_00129019-01
1 10072U 26844KY  26075.70041667  .00000000  00000+0  00000-0 0  9994
2 10072  55.0000 216.0000 0000000   0.0000 216.0000 13.03091871    14
CTC2_L_00129019-02
1 10073U 22210BK  26075.70041667  .00000000  00000+0  00000-0 0  9998
2 10073  55.0000 216.0000 0000000   0.0000 306.0000 13.03091871    15
CTC2_L_00129019-03
1 10074U 22045WS  26075.70041667  .00000000  00000+0  00000-0 0  9995
2 10074  55.0000 216.0000 0000000   0.0000  36.0000 13.03091871    16
CTC2_L_00129019-04
1 10075U 26944IJ  26075.70041667  .00000000  00000+0  00000-0 0  9998
2 10075  55.0000 216.0000 0000000   0.0000 126.0000 13.03091871    17
CTC2_L_00129020-01
1 10076U 25800US  26075.70041667  .00000000  00000+0  00000-0 0  9999
2 10076  55.0000 228.0000 0000000   0.0000 228.0000 13.03091871    14
CTC2_L_00129020-02
1 10077U 22058SK  26075.70041667  .00000000  00000+0  00000-0 0  9992
2 10077  55.0000 228.0000 0000000   0.0000 318.0000 13.03091871    15
CTC2_L_00129020-03
1 10078U 22338CV  26075.70041667  .00000000  00000+0  00000-0 0  9994
2 10078  55.0000 228.0000 0000000   0.0000  48.0000 13.03091871    16
CTC2_L_00129020-04
1 10079U 23206VQ  26075.70041667  .00000000  00000+0  00000-0 0  9990
2 10079  55.0000 228.0000 0000000   0.0000 138.0000 13.03091871    17
CTC2_L_00129021-01
1 10080U 25897PY  26075.70041667  .00000000  00000+0  00000-0 0  9990
2 10080  55.0000 240.0000 0000000   0.0000 240.0000 13.03091871    17
CTC2_L_00129021-02
1 10081U 22371EZ  26075.70041667  .00000000  00000+0  00000-0 0  9995
2 10081  55.0000 240.0000 0000000   0.0000 330.0000 13.03091871    18
CTC2_L_00129021-03
1 10082U 23822KM  26075.70041667  .00000000  00000+0  00000-0 0  9998
2 10082  55.0000 240.0000 0000000   0.0000  60.0000 13.03091871    19
CTC2_L_00129021-04
1 10083U 23022XX  26075.70041667  .00000000  00000+0  00000-0 0  9991
2 10083  55.0000 240.0000 0000000   0.0000 150.0000 13.03091871    10
CTC2_L_00129022-01
1 10084U 23735KH  26075.70041667  .00000000  00000+0  00000-0 0  9993
2 10084  55.0000 252.0000 0000000   0.0000 252.0000 13.03091871    17
CTC2_L_00129022-02
1 10085U 25166TD  26075.70041667  .00000000  00000+0  00000-0 0  9994
2 10085  55.0000 252.0000 0000000   0.0000 342.0000 13.03091871    18
CTC2_L_00129022-03
1 10086U 26129L   26075.70041667  .00000000  00000+0  00000-0 0  9995
2 10086  55.0000 252.0000 0000000   0.0000  72.0000 13.03091871    19
CTC2_L_00129022-04
1 10087U 22740IF  26075.70041667  .00000000  00000+0  00000-0 0  9991
2 10087  55.0000 252.0000 0000000   0.0000 162.0000 13.03091871    10
CTC2_L_00129023-01
1 10088U 24048QI  26075.70041667  .00000000  00000+0  00000-0 0  9995
2 10088  55.0000 264.0000 0000000   0.0000 264.0000 13.03091871    17
CTC2_L_00129023-02
1 10089U 26757HT  26075.70041667  .00000000  00000+0  00000-0 0  9995
2 10089  55.0000 264.0000 0000000   0.0000 354.0000 13.03091871    18
CTC2_L_00129023-03
1 10090U 24988UJ  26075.70041667  .00000000  00000+0  00000-0 0  9991
2 10090  55.0000 264.0000 0000000   0.0000  84.0000 13.03091871    10
CTC2_L_00129023-04
1 10091U 25022QG  26075.70041667  .00000000  00000+0  00000-0 0  9992
2 10091  55.0000 264.0000 0000000   0.0000 174.0000 13.03091871    11
CTC2_L_00129024-01
1 10092U 22428QV  26075.70041667  .00000000  00000+0  00000-0 0  9990
2 10092  55.0000 276.0000 0000000   0.0000 276.0000 13.03091871    18
CTC2_L_00129024-02
1 10093U 25054YQ  26075.70041667  .00000000  00000+0  00000-0 0  9999
2 10093  55.0000 276.0000 0000000   0.0000   6.0000 13.03091871    10
CTC2_L_00129024-03
1 10094U 23952AN  26075.70041667  .00000000  00000+0  00000-0 0  9995
2 10094  55.0000 276.0000 0000000   0.0000  96.0000 13.03091871    10
CTC2_L_00129024-04
1 10095U 25206EM  26075.70041667  .00000000  00000+0  00000-0 0  9990
2 10095  55.0000 276.0000 0000000   0.0000 186.0000 13.03091871    11
CTC2_L_00129025-01
1 10096U 23119LF  26075.70041667  .00000000  00000+0  00000-0 0  9992
2 10096  55.0000 288.0000 0000000   0.0000 288.0000 13.03091871    18
CTC2_L_00129025-02
1 10097U 26225TC  26075.70041667  .00000000  00000+0  00000-0 0  9994
2 10097  55.0000 288.0000 0000000   0.0000  18.0000 13.03091871    10
CTC2_L_00129025-03
1 10098U 26905XO  26075.70041667  .00000000  00000+0  00000-0 0  9990
2 10098  55.0000 288.0000 0000000   0.0000 108.0000 13.03091871    11
CTC2_L_00129025-04
1 10099U 24898PJ  26075.70041667  .00000000  00000+0  00000-0 0  9990
2 10099  55.0000 288.0000 0000000   0.0000 198.0000 13.03091871    11
CTC2_L_00129026-01
1 10100U 25466NQ  26075.70041667  .00000000  00000+0  00000-0 0  9995
2 10100  55.0000 300.0000 0000000   0.0000 300.0000 13.03091871    14
CTC2_L_00129026-02
1 10101U 22977GV  26075.70041667  .00000000  00000+0  00000-0 0  9990
2 10101  55.0000 300.0000 0000000   0.0000  30.0000 13.03091871    15
CTC2_L_00129026-03
1 10102U 26775EZ  26075.70041667  .00000000  00000+0  00000-0 0  9991
2 10102  55.0000 300.0000 0000000   0.0000 120.0000 13.03091871    16
CTC2_L_00129026-04
1 10103U 22086NP  26075.70041667  .00000000  00000+0  00000-0 0  9993
2 10103  55.0000 300.0000 0000000   0.0000 210.0000 13.03091871    17
CTC2_L_00129027-01
1 10104U 23362GY  26075.70041667  .00000000  00000+0  00000-0 0  9992
2 10104  55.0000 312.0000 0000000   0.0000 312.0000 13.03091871    14
CTC2_L_00129027-02
1 10105U 26745IS  26075.70041667  .00000000  00000+0  00000-0 0  9991
2 10105  55.0000 312.0000 0000000   0.0000  42.0000 13.03091871    15
CTC2_L_00129027-03
1 10106U 25592LA  26075.70041667  .00000000  00000+0  00000-0 0  9991
2 10106  55.0000 312.0000 0000000   0.0000 132.0000 13.03091871    16
CTC2_L_00129027-04
1 10107U 22394GQ  26075.70041667  .00000000  00000+0  00000-0 0  9999
2 10107  55.0000 312.0000 0000000   0.0000 222.0000 13.03091871    17
CTC2_L_00129028-01
1 10108U 26819BH  26075.70041667  .00000000  00000+0  00000-0 0  9996
2 10108  55.0000 324.0000 0000000   0.0000 324.0000 13.03091871    14
CTC2_L_00129028-02
1 10109U 22138SS  26075.70041667  .00000000  00000+0  00000-0 0  9997
2 10109  55.0000 324.0000 0000000   0.0000  54.0000 13.03091871    15
CTC2_L_00129028-03
1 10110U 26731TK  26075.70041667  .00000000  00000+0  00000-0 0  9992
2 10110  55.0000 324.0000 0000000   0.0000 144.0000 13.03091871    17
CTC2_L_00129028-04
1 10111U 24722SY  26075.70041667  .00000000  00000+0  00000-0 0  9991
2 10111  55.0000 324.0000 0000000   0.0000 234.0000 13.03091871    18
CTC2_L_00129029-01
1 10112U 26671MI  26075.70041667  .00000000  00000+0  00000-0 0  9997
2 10112  55.0000 336.0000 0000000   0.0000 336.0000 13.03091871    15
CTC2_L_00129029-02
1 10113U 26707IF  26075.70041667  .00000000  00000+0  00000-0 0  9998
2 10113  55.0000 336.0000 0000000   0.0000  66.0000 13.03091871    16
CTC2_L_00129029-03
1 10114U 22959AH  26075.70041667  .00000000  00000+0  00000-0 0  9994
2 10114  55.0000 336.0000 0000000   0.0000 156.0000 13.03091871    17
CTC2_L_00129029-04
1 10115U 26434WE  26075.70041667  .00000000  00000+0  00000-0 0  9997
2 10115  55.0000 336.0000 0000000   0.0000 246.0000 13.03091871    18
CTC2_L_00129030-01
1 10116U 22921V   26075.70041667  .00000000  00000+0  00000-0 0  9995
2 10116  55.0000 348.0000 0000000   0.0000 348.0000 13.03091871    15
CTC2_L_00129030-02
1 10117U 24566FX  26075.70041667  .00000000  00000+0  00000-0 0  9993
2 10117  55.0000 348.0000 0000000   0.0000  78.0000 13.03091871    16
CTC2_L_00129030-03
1 10118U 22608YK  26075.70041667  .00000000  00000+0  00000-0 0  9999
2 10118  55.0000 348.0000 0000000   0.0000 168.0000 13.03091871    17
CTC2_L_00129030-04
1 10119U 23450VO  26075.70041667  .00000000  00000+0  00000-0 0  9996
2 10119  55.0000 348.0000 0000000   0.0000 258.0000 13.03091871    18
